IRIDIUM 136             
1 42962U 17061H   24229.61531042  .00000037  00000+0  62589-5 0  9993
2 42962  86.3976 305.0675 0002465  89.4900 270.6578 14.34209288358863
